{
  "type": "FeatureCollection",
  "features": [
    {
      "type": "Feature",
      "properties": {
        "norad_id": 32376,
        "name": "COSMO-SKYMED 2",
        "group": "resource",
        "lat": -68.03195237555836,
        "lon": -177.89156734330427,
        "alt_km": 630.7717695892243,
        "timestamp": "2025-12-06T14:35:36.784031+00:00",
        "meta_object_name": "COSMO-SKYMED 2",
        "meta_object_id": "2007-059A",
        "meta_epoch": "2025-12-06T06:48:18.543744",
        "meta_mean_motion": 14.82153862,
        "meta_eccentricity": 0.00015321,
        "meta_inclination": 97.8813,
        "meta_ra_of_asc_node": 161.7044,
        "meta_arg_of_pericenter": 87.0541,
        "meta_mean_anomaly": 273.0848,
        "meta_ephemeris_type": 0,
        "meta_classification_type": "U",
        "meta_norad_cat_id": 32376,
        "meta_element_set_no": 999,
        "meta_rev_at_epoch": 97342,
        "meta_bstar": 0.00015052478,
        "meta_mean_motion_dot": 1.146e-05,
        "meta_mean_motion_ddot": 0,
        "tle_line1": "1 32376U 07059A   25340.28354796  .00001146  00000+0  15052-3 0  9997",
        "tle_line2": "2 32376  97.8813 161.7044 0001532  87.0541 273.0848 14.82153862973425"
      },
      "geometry": {
        "type": "Point",
        "coordinates": [
          -177.89156734330427,
          -68.03195237555836
        ]
      }
    },
    {
      "type": "Feature",
      "properties": {
        "norad_id": 32382,
        "name": "RADARSAT-2",
        "group": "resource",
        "lat": -49.9757078541468,
        "lon": -4.356367748581684,
        "alt_km": 799.2470359668214,
        "timestamp": "2025-12-06T14:35:36.784042+00:00",
        "meta_object_name": "RADARSAT-2",
        "meta_object_id": "2007-061A",
        "meta_epoch": "2025-12-06T06:26:02.456736",
        "meta_mean_motion": 14.29984893,
        "meta_eccentricity": 0.00010789,
        "meta_inclination": 98.5799,
        "meta_ra_of_asc_node": 344.9523,
        "meta_arg_of_pericenter": 91.3445,
        "meta_mean_anomaly": 268.7861,
        "meta_ephemeris_type": 0,
        "meta_classification_type": "U",
        "meta_norad_cat_id": 32382,
        "meta_element_set_no": 999,
        "meta_rev_at_epoch": 93838,
        "meta_bstar": 8.3117163e-05,
        "meta_mean_motion_dot": 1.71e-06,
        "meta_mean_motion_ddot": 0,
        "tle_line1": "1 32382U 07061A   25340.26808399  .00000171  00000+0  83117-4 0  9993",
        "tle_line2": "2 32382  98.5799 344.9523 0001078  91.3445 268.7861 14.29984893938385"
      },
      "geometry": {
        "type": "Point",
        "coordinates": [
          -4.356367748581684,
          -49.9757078541468
        ]
      }
    },
    {
      "type": "Feature",
      "properties": {
        "norad_id": 32783,
        "name": "CARTOSAT-2A",
        "group": "resource",
        "lat": 37.779556020443756,
        "lon": -143.28277859365636,
        "alt_km": 634.0160169034343,
        "timestamp": "2025-12-06T14:35:36.784052+00:00",
        "meta_object_name": "CARTOSAT-2A",
        "meta_object_id": "2008-021A",
        "meta_epoch": "2025-12-06T05:50:12.228576",
        "meta_mean_motion": 14.78919156,
        "meta_eccentricity": 0.00123007,
        "meta_inclination": 97.7939,
        "meta_ra_of_asc_node": 30.2695,
        "meta_arg_of_pericenter": 25.0657,
        "meta_mean_anomaly": 335.1149,
        "meta_ephemeris_type": 0,
        "meta_classification_type": "U",
        "meta_norad_cat_id": 32783,
        "meta_element_set_no": 999,
        "meta_rev_at_epoch": 95028,
        "meta_bstar": 0.00024853846,
        "meta_mean_motion_dot": 1.784e-05,
        "meta_mean_motion_ddot": 0,
        "tle_line1": "1 32783U 08021A   25340.24319709  .00001784  00000+0  24854-3 0  9998",
        "tle_line2": "2 32783  97.7939  30.2695 0012300  25.0657 335.1149 14.78919156950286"
      },
      "geometry": {
        "type": "Point",
        "coordinates": [
          -143.28277859365636,
          37.779556020443756
        ]
      }
    },
    {
      "type": "Feature",
      "properties": {
        "norad_id": 33320,
        "name": "HUANJING 1A (HJ-1A)",
        "group": "resource",
        "lat": -82.2484688340597,
        "lon": 68.10653477582173,
        "alt_km": 637.8181221583882,
        "timestamp": "2025-12-06T14:35:36.784063+00:00",
        "meta_object_name": "HUANJING 1A (HJ-1A)",
        "meta_object_id": "2008-041A",
        "meta_epoch": "2025-12-06T05:17:27.103776",
        "meta_mean_motion": 14.83362358,
        "meta_eccentricity": 0.00205278,
        "meta_inclination": 97.6533,
        "meta_ra_of_asc_node": 328.7913,
        "meta_arg_of_pericenter": 54.8735,
        "meta_mean_anomaly": 305.4399,
        "meta_ephemeris_type": 0,
        "meta_classification_type": "U",
        "meta_norad_cat_id": 33320,
        "meta_element_set_no": 999,
        "meta_rev_at_epoch": 92979,
        "meta_bstar": 0.00035550207,
        "meta_mean_motion_dot": 2.874e-05,
        "meta_mean_motion_ddot": 0,
        "tle_line1": "1 33320U 08041A   25340.22045259  .00002874  00000+0  35550-3 0  9998",
        "tle_line2": "2 33320  97.6533 328.7913 0020527  54.8735 305.4399 14.83362358929799"
      },
      "geometry": {
        "type": "Point",
        "coordinates": [
          68.10653477582173,
          -82.2484688340597
        ]
      }
    },
    {
      "type": "Feature",
      "properties": {
        "norad_id": 33321,
        "name": "HUANJING 1B (HJ-1B)",
        "group": "resource",
        "lat": 36.58238337821968,
        "lon": 158.59263074984742,
        "alt_km": 599.9148471901335,
        "timestamp": "2025-12-06T14:35:36.784074+00:00",
        "meta_object_name": "HUANJING 1B (HJ-1B)",
        "meta_object_id": "2008-041B",
        "meta_epoch": "2025-12-06T05:51:23.936256",
        "meta_mean_motion": 14.82795731,
        "meta_eccentricity": 0.00382562,
        "meta_inclination": 97.6393,
        "meta_ra_of_asc_node": 332.5278,
        "meta_arg_of_pericenter": 96.3589,
        "meta_mean_anomaly": 264.1984,
        "meta_ephemeris_type": 0,
        "meta_classification_type": "U",
        "meta_norad_cat_id": 33321,
        "meta_element_set_no": 999,
        "meta_rev_at_epoch": 92981,
        "meta_bstar": 0.00030443722,
        "meta_mean_motion_dot": 2.442e-05,
        "meta_mean_motion_ddot": 0,
        "tle_line1": "1 33321U 08041B   25340.24402704  .00002442  00000+0  30444-3 0  9991",
        "tle_line2": "2 33321  97.6393 332.5278 0038256  96.3589 264.1984 14.82795731929815"
      },
      "geometry": {
        "type": "Point",
        "coordinates": [
          158.59263074984742,
          36.58238337821968
        ]
      }
    },
    {
      "type": "Feature",
      "properties": {
        "norad_id": 33331,
        "name": "GEOEYE 1",
        "group": "resource",
        "lat": 14.358815644648079,
        "lon": -125.93864735718347,
        "alt_km": 680.1901999253823,
        "timestamp": "2025-12-06T14:35:36.784085+00:00",
        "meta_object_name": "GEOEYE 1",
        "meta_object_id": "2008-042A",
        "meta_epoch": "2025-12-06T05:38:36.992832",
        "meta_mean_motion": 14.64799305,
        "meta_eccentricity": 0.00028713,
        "meta_inclination": 98.126,
        "meta_ra_of_asc_node": 51.597,
        "meta_arg_of_pericenter": 305.4477,
        "meta_mean_anomaly": 54.6458,
        "meta_ephemeris_type": 0,
        "meta_classification_type": "U",
        "meta_norad_cat_id": 33331,
        "meta_element_set_no": 999,
        "meta_rev_at_epoch": 92190,
        "meta_bstar": 0.00024794536,
        "meta_mean_motion_dot": 1.275e-05,
        "meta_mean_motion_ddot": 0,
        "tle_line1": "1 33331U 08042A   25340.23515038  .00001275  00000+0  24795-3 0  9992",
        "tle_line2": "2 33331  98.1260  51.5970 0002871 305.4477  54.6458 14.64799305921907"
      },
      "geometry": {
        "type": "Point",
        "coordinates": [
          -125.93864735718347,
          14.358815644648079
        ]
      }
    },
    {
      "type": "Feature",
      "properties": {
        "norad_id": 33396,
        "name": "THEOS",
        "group": "resource",
        "lat": -70.54771194236824,
        "lon": 64.21058030066514,
        "alt_km": 833.0822406363104,
        "timestamp": "2025-12-06T14:35:36.784096+00:00",
        "meta_object_name": "THEOS",
        "meta_object_id": "2008-049A",
        "meta_epoch": "2025-12-06T06:28:46.236576",
        "meta_mean_motion": 14.20094427,
        "meta_eccentricity": 0.0001105,
        "meta_inclination": 98.5878,
        "meta_ra_of_asc_node": 38.5503,
        "meta_arg_of_pericenter": 99.9368,
        "meta_mean_anomaly": 260.1933,
        "meta_ephemeris_type": 0,
        "meta_classification_type": "U",
        "meta_norad_cat_id": 33396,
        "meta_element_set_no": 999,
        "meta_rev_at_epoch": 89058,
        "meta_bstar": 0.00010420714,
        "meta_mean_motion_dot": 1.79e-06,
        "meta_mean_motion_ddot": 0,
        "tle_line1": "1 33396U 08049A   25340.26997959  .00000179  00000+0  10421-3 0  9992",
        "tle_line2": "2 33396  98.5878  38.5503 0001105  99.9368 260.1933 14.20094427890583"
      },
      "geometry": {
        "type": "Point",
        "coordinates": [
          64.21058030066514,
          -70.54771194236824
        ]
      }
    }
  ]
}